OBJECT_NAME,OBJECT_ID,EPOCH,MEAN_MOTION,ECCENTRICITY,INCLINATION,RA_OF_ASC_NODE,ARG_OF_PERICENTER,MEAN_ANOMALY,EPHEMERIS_TYPE,CLASSIFICATION_TYPE,NORAD_CAT_ID,ELEMENT_SET_NO,REV_AT_EPOCH,BSTAR,MEAN_MOTION_DOT,MEAN_MOTION_DDOT
STARLINK-36070,2025-281S,2026-07-19T17:04:37.576128,15.27581248,.0001376,43.0029,318.1377,269.1171,90.9523,0,U,66864,999,3637,.15118E-3,.39E-4,0
STARLINK-36117,2025-281T,2026-07-19T16:01:42.914784,15.27587113,.0001262,43.0008,317.8062,271.3685,88.7022,0,U,66865,999,3637,.23926E-3,.6329E-4,0
STARLINK-36126,2025-281U,2026-07-19T09:30:29.778336,15.27584284,.00012714,43.0022,320.0694,241.5413,118.5311,0,U,66866,999,3631,.28816612E-3,.7677E-4,0
STARLINK-36101,2025-281V,2026-07-19T15:41:34.304928,15.27579690,.0001885,43.0037,318.5649,276.2180,83.8457,0,U,66867,999,3635,.38498E-3,.10346E-3,0
STARLINK-36108,2025-281W,2026-07-19T09:19:22.813536,15.27611874,.0001464,43.0031,320.0125,273.1633,86.9051,0,U,66868,999,3631,.61608982E-3,.16746E-3,0
STARLINK-36092,2025-281X,2026-07-19T17:00:55.168704,15.27590788,.0001924,43.0048,318.1188,281.4695,78.5941,0,U,66869,999,3636,.26376E-3,.7005E-4,0
STARLINK-36114,2025-281Y,2026-07-19T15:21:14.178816,15.27580910,.0000556,42.9989,318.4539,236.8499,123.2300,0,U,66870,999,3635,.28636E-3,.7627E-4,0
STARLINK-36095,2025-281Z,2026-07-19T08:59:02.354784,15.27577295,.00012485,43.0010,319.9016,266.7500,93.3208,0,U,66871,999,3630,.65511481E-4,.1541E-4,0
STARLINK-36082,2025-281AA,2026-07-19T16:44:17.392992,15.27606225,.0001434,43.0014,318.0255,275.0290,85.0397,0,U,66872,999,3636,.67668E-3,.1842E-3,0
STARLINK-36128,2025-281AB,2026-07-19T18:03:37.167264,15.27590222,.0001458,43.0015,317.5775,277.1063,82.9623,0,U,66873,999,3632,.25601E-3,.6791E-4,0
STARLINK-36129,2025-281AC,2026-07-19T08:47:54.371328,15.27626782,.0001084,43.0002,319.8442,275.6546,84.4182,0,U,66874,999,3631,.62509759E-3,.17003E-3,0
STARLINK-36053,2025-281AD,2026-07-19T16:23:54.661056,15.27587976,.0001454,43.0002,317.9147,272.9899,87.0786,0,U,66875,999,3631,.16651E-3,.4324E-4,0
STARLINK-35702,2025-281AE,2026-07-19T16:33:10.111968,15.27577057,.0001398,43.0017,317.9652,266.7372,93.3319,0,U,66876,999,3636,.22496E-3,.5933E-4,0
STARLINK-35866,2025-283A,2026-07-19T19:24:25.886016,15.30220219,.0001409,53.1600,130.3839,93.8580,266.2582,0,U,66878,999,3607,.43269E-3,.12485E-3,0
STARLINK-35749,2025-283B,2026-07-19T19:07:44.529888,15.30224060,.0001522,53.1599,130.3107,92.4528,267.6647,0,U,66879,999,3607,.51314E-3,.1488E-3,0
STARLINK-35844,2025-283C,2026-07-19T05:08:51.182592,15.30221746,.0001408,53.1595,133.0750,94.2203,265.8959,0,U,66880,999,3598,.34219385E-3,.9796E-4,0
STARLINK-35860,2025-283D,2026-07-19T18:58:36.194880,15.30209667,.0001352,53.1602,130.2701,93.3882,266.7273,0,U,66881,999,3607,.28146E-3,.7988E-4,0
STARLINK-35912,2025-283E,2026-07-19T19:49:43.725792,15.34428289,.0001493,53.1570,128.3709,113.2145,246.9015,0,U,66882,999,3610,.80879E-3,.27073E-3,0
STARLINK-35947,2025-283F,2026-07-19T12:12:52.472160,15.34398732,.00012745,53.1573,129.9461,87.3213,272.7935,0,U,66883,999,3607,.23921026E-3,.7714E-4,0
STARLINK-36057,2025-283G,2026-07-19T12:58:19.098912,15.34397629,.0001427,53.1585,130.1382,89.4222,270.6944,0,U,66884,999,3605,.32775E-3,.10712E-3,0
STARLINK-35954,2025-283H,2026-07-19T18:55:21.014688,15.34404699,.0001619,53.1594,128.8441,73.6833,286.4348,0,U,66885,999,3609,.68212E-3,.22744E-3,0
STARLINK-35900,2025-283J,2026-07-19T03:05:14.952192,15.34397672,.00015299,53.1583,131.8378,69.9784,290.1383,0,U,66886,999,3599,.2798885E-3,.9091E-4,0
STARLINK-35925,2025-283K,2026-07-19T19:10:28.150752,15.34404316,.0001269,53.1586,128.9079,88.1793,271.9355,0,U,66887,999,3609,.41582E-3,.137E-3,0
STARLINK-35919,2025-283L,2026-07-19T19:28:39.184032,15.34404878,.0001253,53.1583,128.9857,86.5349,273.5797,0,U,66888,999,3609,.55799E-3,.18526E-3,0
STARLINK-35852,2025-283M,2026-07-19T04:36:00.753696,15.34404350,.00014585,53.1591,131.5154,77.7929,282.3237,0,U,66889,999,3600,.38608404E-3,.12692E-3,0
STARLINK-35885,2025-283N,2026-07-19T18:58:21.327168,15.34388886,.0001594,53.1592,128.8535,90.6530,269.4655,0,U,66890,999,3609,.43144E-3,.14223E-3,0
STARLINK-35855,2025-283P,2026-07-19T19:25:37.420032,15.34396457,.0001328,53.1582,128.9682,85.2846,274.8308,0,U,66891,999,3609,.35473E-3,.11626E-3,0
STARLINK-35883,2025-283Q,2026-07-19T19:27:28.881216,15.30206236,.0001387,53.1585,130.3942,85.3139,274.8021,0,U,66892,999,3607,.2726E-3,.7724E-4,0
STARLINK-36033,2025-283R,2026-07-19T20:00:01.999008,15.34333744,.000131,53.1587,130.6706,117.1223,174.7542,0,U,66893,999,585,.13454E-2,.45258E-3,0
STARLINK-35718,2025-283S,2026-07-19T19:18:21.877632,15.30209069,.0001769,53.1591,130.3551,97.6964,262.4237,0,U,66894,999,3607,.38395E-3,.11032E-3,0
