STARLINK-36070          
1 66864U 25281S   26200.71154602  .00003900  00000+0  15118-3 0  9994
2 66864  43.0029 318.1377 0001376 269.1171  90.9523 15.27581248 36374
STARLINK-36117          
1 66865U 25281T   26200.66785781  .00006329  00000+0  23926-3 0  9991
2 66865  43.0008 317.8062 0001262 271.3685  88.7022 15.27587113 36374
STARLINK-36126          
1 66866U 25281U   26200.39617799  .00007677  00000+0  28817-3 0  9996
2 66866  43.0022 320.0694 0001271 241.5413 118.5311 15.27584284 36319
STARLINK-36101          
1 66867U 25281V   26200.65386927  .00010346  00000+0  38498-3 0  9995
2 66867  43.0037 318.5649 0001885 276.2180  83.8457 15.27579690 36359
STARLINK-36108          
1 66868U 25281W   26200.38845849  .00016746  00000+0  61609-3 0  9999
2 66868  43.0031 320.0125 0001464 273.1633  86.9051 15.27611874 36314
STARLINK-36092          
1 66869U 25281X   26200.70897186  .00007005  00000+0  26376-3 0  9997
2 66869  43.0048 318.1188 0001924 281.4695  78.5941 15.27590788 36361
STARLINK-36114          
1 66870U 25281Y   26200.63974744  .00007627  00000+0  28636-3 0  9998
2 66870  42.9989 318.4539 0000556 236.8499 123.2300 15.27580910 36356
STARLINK-36095          
1 66871U 25281Z   26200.37433281  .00001541  00000+0  65511-4 0  9999
2 66871  43.0010 319.9016 0001248 266.7500  93.3208 15.27577295 36305
STARLINK-36082          
1 66872U 25281AA  26200.69742353  .00018420  00000+0  67668-3 0  9996
2 66872  43.0014 318.0255 0001434 275.0290  85.0397 15.27606225 36360
STARLINK-36128          
1 66873U 25281AB  26200.75251351  .00006791  00000+0  25601-3 0  9996
2 66873  43.0015 317.5775 0001458 277.1063  82.9623 15.27590222 36323
STARLINK-36129          
1 66874U 25281AC  26200.36660152  .00017003  00000+0  62510-3 0  9995
2 66874  43.0002 319.8442 0001084 275.6546  84.4182 15.27626782 36317
STARLINK-36053          
1 66875U 25281AD  26200.68327154  .00004324  00000+0  16651-3 0  9990
2 66875  43.0002 317.9147 0001454 272.9899  87.0786 15.27587976 36311
STARLINK-35702          
1 66876U 25281AE  26200.68970037  .00005933  00000+0  22496-3 0  9996
2 66876  43.0017 317.9652 0001398 266.7372  93.3319 15.27577057 36369
STARLINK-35866          
1 66878U 25283A   26200.80863294  .00012485  00000+0  43269-3 0  9991
2 66878  53.1600 130.3839 0001409  93.8580 266.2582 15.30220219 36078
STARLINK-35749          
1 66879U 25283B   26200.79704317  .00014880  00000+0  51314-3 0  9991
2 66879  53.1599 130.3107 0001522  92.4528 267.6647 15.30224060 36072
STARLINK-35844          
1 66880U 25283C   26200.21448128  .00009796  00000+0  34219-3 0  9990
2 66880  53.1595 133.0750 0001408  94.2203 265.8959 15.30221746 35980
STARLINK-35860          
1 66881U 25283D   26200.79069670  .00007988  00000+0  28146-3 0  9998
2 66881  53.1602 130.2701 0001352  93.3882 266.7273 15.30209667 36074
STARLINK-35912          
1 66882U 25283E   26200.82620053  .00027073  00000+0  80879-3 0  9999
2 66882  53.1570 128.3709 0001493 113.2145 246.9015 15.34428289 36100
STARLINK-35947          
1 66883U 25283F   26200.50894065  .00007714  00000+0  23921-3 0  9996
2 66883  53.1573 129.9461 0001274  87.3213 272.7935 15.34398732 36073
STARLINK-36057          
1 66884U 25283G   26200.54049883  .00010712  00000+0  32775-3 0  9990
2 66884  53.1585 130.1382 0001427  89.4222 270.6944 15.34397629 36055
STARLINK-35954          
1 66885U 25283H   26200.78843767  .00022744  00000+0  68212-3 0  9993
2 66885  53.1594 128.8441 0001619  73.6833 286.4348 15.34404699 36095
STARLINK-35900          
1 66886U 25283J   26200.12864528  .00009091  00000+0  27989-3 0  9996
2 66886  53.1583 131.8378 0001529  69.9784 290.1383 15.34397672 35991
STARLINK-35925          
1 66887U 25283K   26200.79893693  .00013700  00000+0  41582-3 0  9992
2 66887  53.1586 128.9079 0001269  88.1793 271.9355 15.34404316 36096
STARLINK-35919          
1 66888U 25283L   26200.81156463  .00018526  00000+0  55799-3 0  9999
2 66888  53.1583 128.9857 0001253  86.5349 273.5797 15.34404878 36091
STARLINK-35852          
1 66889U 25283M   26200.19167539  .00012692  00000+0  38608-3 0  9995
2 66889  53.1591 131.5154 0001458  77.7929 282.3237 15.34404350 36007
STARLINK-35885          
1 66890U 25283N   26200.79052462  .00014223  00000+0  43144-3 0  9994
2 66890  53.1592 128.8535 0001594  90.6530 269.4655 15.34388886 36099
STARLINK-35855          
1 66891U 25283P   26200.80946088  .00011626  00000+0  35473-3 0  9993
2 66891  53.1582 128.9682 0001328  85.2846 274.8308 15.34396457 36096
STARLINK-35883          
1 66892U 25283Q   26200.81075094  .00007724  00000+0  27260-3 0  9994
2 66892  53.1585 130.3942 0001387  85.3139 274.8021 15.30206236 36078
STARLINK-36033          
1 66893U 25283R   26200.83335647  .00045258  00000+0  13454-2 0  9993
2 66893  53.1587 130.6706 0001310 117.1223 174.7542 15.34333744  5853
STARLINK-35718          
1 66894U 25283S   26200.80441988  .00011032  00000+0  38395-3 0  9992
2 66894  53.1591 130.3551 0001769  97.6964 262.4237 15.30209069 36078
